start=new Date('2021-12-30T00:00:00.000Z').valueOf();
sats=[{"CENTER_NAME":"EARTH","BSTAR":"0.00013368000000","PERIOD":"95.592","REV_AT_EPOCH":"6586","MEAN_ELEMENT_THEORY":"SGP4","TLE_LINE1":"1 46742U 20074D   21363.35243694  .00001710  00000-0  13368-3 0  9990","OBJECT_ID":"2020-074D","RA_OF_ASC_NODE":"356.0507","SITE":"AFETR","LAUNCH_DATE":"2020-10-24","CLASSIFICATION_TYPE":"U","APOAPSIS":"548.319","INCLINATION":"53.0555","SEMIMAJOR_AXIS":"6925.353","ARG_OF_PERICENTER":"64.2344","DECAY_DATE":null,"MEAN_ANOMALY":"295.8809","OBJECT_NAME":"STARLINK-1872","MEAN_MOTION_DDOT":"0.0000000000000","COUNTRY_CODE":"US","ELEMENT_SET_NO":"999","EPHEMERIS_TYPE":"0","MEAN_MOTION":"15.06398504","MEAN_MOTION_DOT":"0.00001710","TIME_SYSTEM":"UTC","RCS_SIZE":"LARGE","NORAD_CAT_ID":"46742","TLE_LINE2":"2 46742  53.0555 356.0507 0001590  64.2344 295.8809 15.06398504 65869","FILE":"3254971","REF_FRAME":"TEME","OBJECT_TYPE":"PAYLOAD","GP_ID":"192714412","EPOCH":"2021-12-29T08:27:30.551616","ECCENTRICITY":"0.00015900","PERIAPSIS":"546.117"},{"MEAN_ANOMALY":"191.2576","DECAY_DATE":null,"ARG_OF_PERICENTER":"168.8464","OBJECT_NAME":"STARLINK-1892","COUNTRY_CODE":"US","ELEMENT_SET_NO":"999","MEAN_MOTION_DDOT":"0.0000000000000","NORAD_CAT_ID":"46743","RCS_SIZE":"LARGE","MEAN_MOTION_DOT":"-0.00016205","TIME_SYSTEM":"UTC","EPHEMERIS_TYPE":"0","MEAN_MOTION":"15.06481718","TLE_LINE2":"2 46743  53.0555 356.2516 0002295 168.8464 191.2576 15.06481718 65869","FILE":"3254971","OBJECT_TYPE":"PAYLOAD","REF_FRAME":"TEME","ECCENTRICITY":"0.00022950","EPOCH":"2021-12-29T07:23:46.624992","GP_ID":"192713164","PERIAPSIS":"545.374","BSTAR":"-0.00106900000000","CENTER_NAME":"EARTH","OBJECT_ID":"2020-074E","TLE_LINE1":"1 46743U 20074E   21363.30817853 -.00016205  00000-0 -10690-2 0  9991","MEAN_ELEMENT_THEORY":"SGP4","REV_AT_EPOCH":"6586","PERIOD":"95.587","RA_OF_ASC_NODE":"356.2516","SITE":"AFETR","LAUNCH_DATE":"2020-10-24","APOAPSIS":"548.552","CLASSIFICATION_TYPE":"U","SEMIMAJOR_AXIS":"6925.098","INCLINATION":"53.0555"},{"RA_OF_ASC_NODE":"355.8666","SITE":"AFETR","LAUNCH_DATE":"2020-10-24","CENTER_NAME":"EARTH","BSTAR":"0.00020384000000","PERIOD":"95.592","REV_AT_EPOCH":"6587","MEAN_ELEMENT_THEORY":"SGP4","TLE_LINE1":"1 46744U 20074F   21363.39297888  .00002756  00000-0  20384-3 0  9997","OBJECT_ID":"2020-074F","CLASSIFICATION_TYPE":"U","APOAPSIS":"548.310","INCLINATION":"53.0547","SEMIMAJOR_AXIS":"6925.329","MEAN_MOTION_DDOT":"0.0000000000000","ELEMENT_SET_NO":"999","COUNTRY_CODE":"US","MEAN_MOTION":"15.06406502","EPHEMERIS_TYPE":"0","TIME_SYSTEM":"UTC","MEAN_MOTION_DOT":"0.00002756","NORAD_CAT_ID":"46744","RCS_SIZE":"LARGE","ARG_OF_PERICENTER":"65.6739","DECAY_DATE":null,"MEAN_ANOMALY":"294.4418","OBJECT_NAME":"STARLINK-1894","EPOCH":"2021-12-29T09:25:53.375232","GP_ID":"192713413","ECCENTRICITY":"0.00016120","PERIAPSIS":"546.077","FILE":"3254971","TLE_LINE2":"2 46744  53.0547 355.8666 0001612  65.6739 294.4418 15.06406502 65873","REF_FRAME":"TEME","OBJECT_TYPE":"PAYLOAD"},{"APOAPSIS":"436.761","CLASSIFICATION_TYPE":"U","SEMIMAJOR_AXIS":"6812.409","INCLINATION":"53.0561","RA_OF_ASC_NODE":"342.6904","SITE":"AFETR","LAUNCH_DATE":"2020-10-24","CENTER_NAME":"EARTH","BSTAR":"0.00032948000000","OBJECT_ID":"2020-074G","TLE_LINE1":"1 46745U 20074G   21363.92585650  .00014873  00000-0  32948-3 0  9996","MEAN_ELEMENT_THEORY":"SGP4","PERIOD":"93.263","REV_AT_EPOCH":"6610","ECCENTRICITY":"0.00036500","GP_ID":"192745202","EPOCH":"2021-12-29T22:13:14.001600","PERIAPSIS":"431.788","FILE":"3255236","TLE_LINE2":"2 46745  53.0561 342.6904 0003650  75.8094 284.3317 15.44015539 66101","OBJECT_TYPE":"PAYLOAD","REF_FRAME":"TEME","ELEMENT_SET_NO":"999","COUNTRY_CODE":"US","MEAN_MOTION_DDOT":"0.0000000000000","NORAD_CAT_ID":"46745","RCS_SIZE":"LARGE","TIME_SYSTEM":"UTC","MEAN_MOTION_DOT":"0.00014873","MEAN_MOTION":"15.44015539","EPHEMERIS_TYPE":"0","MEAN_ANOMALY":"284.3317","DECAY_DATE":null,"ARG_OF_PERICENTER":"75.8094","OBJECT_NAME":"STARLINK-1898"},{"PERIAPSIS":"545.978","GP_ID":"192720253","EPOCH":"2021-12-29T11:22:39.924480","ECCENTRICITY":"0.00017250","REF_FRAME":"TEME","OBJECT_TYPE":"PAYLOAD","TLE_LINE2":"2 46746  53.0555 355.5083 0001725  64.4580 295.6588 15.06413369 65892","FILE":"3255110","MEAN_MOTION_DOT":"0.00007364","TIME_SYSTEM":"UTC","MEAN_MOTION":"15.06413369","EPHEMERIS_TYPE":"0","RCS_SIZE":"LARGE","NORAD_CAT_ID":"46746","MEAN_MOTION_DDOT":"0.0000000000000","COUNTRY_CODE":"US","ELEMENT_SET_NO":"999","OBJECT_NAME":"STARLINK-1905","DECAY_DATE":null,"ARG_OF_PERICENTER":"64.4580","MEAN_ANOMALY":"295.6588","SEMIMAJOR_AXIS":"6925.308","INCLINATION":"53.0555","CLASSIFICATION_TYPE":"U","APOAPSIS":"548.367","LAUNCH_DATE":"2020-10-24","SITE":"AFETR","RA_OF_ASC_NODE":"355.5083","MEAN_ELEMENT_THEORY":"SGP4","REV_AT_EPOCH":"6589","PERIOD":"95.591","OBJECT_ID":"2020-074H","TLE_LINE1":"1 46746U 20074H   21363.47407320  .00007364  00000-0  51256-3 0  9994","BSTAR":"0.00051256000000","CENTER_NAME":"EARTH"},{"CLASSIFICATION_TYPE":"U","APOAPSIS":"548.414","SEMIMAJOR_AXIS":"6925.354","INCLINATION":"53.0553","RA_OF_ASC_NODE":"356.4767","SITE":"AFETR","LAUNCH_DATE":"2020-10-24","CENTER_NAME":"EARTH","BSTAR":"0.00014802000000","MEAN_ELEMENT_THEORY":"SGP4","PERIOD":"95.592","REV_AT_EPOCH":"6585","OBJECT_ID":"2020-074J","TLE_LINE1":"1 46747U 20074J   21363.25660156  .00001924  00000-0  14802-3 0  9991","EPOCH":"2021-12-29T06:09:30.374784","GP_ID":"192713665","ECCENTRICITY":"0.00017260","PERIAPSIS":"546.024","FILE":"3254971","TLE_LINE2":"2 46747  53.0553 356.4767 0001726  60.7113 299.4049 15.06398185 65850","REF_FRAME":"TEME","OBJECT_TYPE":"PAYLOAD","MEAN_MOTION_DDOT":"0.0000000000000","COUNTRY_CODE":"US","ELEMENT_SET_NO":"999","TIME_SYSTEM":"UTC","MEAN_MOTION_DOT":"0.00001924","MEAN_MOTION":"15.06398185","EPHEMERIS_TYPE":"0","NORAD_CAT_ID":"46747","RCS_SIZE":"LARGE","DECAY_DATE":null,"ARG_OF_PERICENTER":"60.7113","MEAN_ANOMALY":"299.4049","OBJECT_NAME":"STARLINK-1908"},{"SITE":"AFETR","LAUNCH_DATE":"2020-10-24","RA_OF_ASC_NODE":"355.5659","TLE_LINE1":"1 46748U 20074K   21363.46301866  .00000884  00000-0  78275-4 0  9994","OBJECT_ID":"2020-074K","REV_AT_EPOCH":"6588","PERIOD":"95.592","MEAN_ELEMENT_THEORY":"SGP4","BSTAR":"0.00007827500000","CENTER_NAME":"EARTH","INCLINATION":"53.0552","SEMIMAJOR_AXIS":"6925.357","APOAPSIS":"548.318","CLASSIFICATION_TYPE":"U","NORAD_CAT_ID":"46748","RCS_SIZE":"LARGE","EPHEMERIS_TYPE":"0","MEAN_MOTION":"15.06397356","MEAN_MOTION_DOT":"0.00000884","TIME_SYSTEM":"UTC","COUNTRY_CODE":"US","ELEMENT_SET_NO":"999","MEAN_MOTION_DDOT":"0.0000000000000","OBJECT_NAME":"STARLINK-1910","MEAN_ANOMALY":"300.4729","ARG_OF_PERICENTER":"59.6417","DECAY_DATE":null,"PERIAPSIS":"546.125","ECCENTRICITY":"0.00015830","GP_ID":"192713914","EPOCH":"2021-12-29T11:06:44.812224","OBJECT_TYPE":"PAYLOAD","REF_FRAME":"TEME","FILE":"3254971","TLE_LINE2":"2 46748  53.0552 355.5659 0001583  59.6417 300.4729 15.06397356 65885"},{"APOAPSIS":"548.218","CLASSIFICATION_TYPE":"U","INCLINATION":"53.0562","SEMIMAJOR_AXIS":"6925.355","RA_OF_ASC_NODE":"355.8283","LAUNCH_DATE":"2020-10-24","SITE":"AFETR","CENTER_NAME":"EARTH","BSTAR":"0.00003746900000","TLE_LINE1":"1 46749U 20074L   21363.40403967  .00000277  00000-0  37469-4 0  9990","OBJECT_ID":"2020-074L","REV_AT_EPOCH":"6587","PERIOD":"95.592","MEAN_ELEMENT_THEORY":"SGP4","ECCENTRICITY":"0.00014410","GP_ID":"192714665","EPOCH":"2021-12-29T09:41:49.027488","PERIAPSIS":"546.222","FILE":"3254971","TLE_LINE2":"2 46749  53.0562 355.8283 0001441  63.2961 296.8175 15.06398022 65874","OBJECT_TYPE":"PAYLOAD","REF_FRAME":"TEME","COUNTRY_CODE":"US","ELEMENT_SET_NO":"999","MEAN_MOTION_DDOT":"0.0000000000000","NORAD_CAT_ID":"46749","RCS_SIZE":"LARGE","MEAN_MOTION":"15.06398022","EPHEMERIS_TYPE":"0","MEAN_MOTION_DOT":"0.00000277","TIME_SYSTEM":"UTC","MEAN_ANOMALY":"296.8175","ARG_OF_PERICENTER":"63.2961","DECAY_DATE":null,"OBJECT_NAME":"STARLINK-1911"},{"APOAPSIS":"548.303","CLASSIFICATION_TYPE":"U","SEMIMAJOR_AXIS":"6925.348","INCLINATION":"53.0546","RA_OF_ASC_NODE":"355.5496","SITE":"AFETR","LAUNCH_DATE":"2020-10-24","BSTAR":"0.00010708000000","CENTER_NAME":"EARTH","OBJECT_ID":"2020-074N","TLE_LINE1":"1 46751U 20074N   21363.46670216  .00001314  00000-0  10708-3 0  9991","MEAN_ELEMENT_THEORY":"SGP4","PERIOD":"95.592","REV_AT_EPOCH":"6588","ECCENTRICITY":"0.00015750","GP_ID":"192714413","EPOCH":"2021-12-29T11:12:03.066624","PERIAPSIS":"546.122","FILE":"3254971","TLE_LINE2":"2 46751  53.0546 355.5496 0001575  63.6537 296.4613 15.06400300 65880","OBJECT_TYPE":"PAYLOAD","REF_FRAME":"TEME","ELEMENT_SET_NO":"999","COUNTRY_CODE":"US","MEAN_MOTION_DDOT":"0.0000000000000","RCS_SIZE":"LARGE","NORAD_CAT_ID":"46751","MEAN_MOTION_DOT":"0.00001314","TIME_SYSTEM":"UTC","MEAN_MOTION":"15.06400300","EPHEMERIS_TYPE":"0","MEAN_ANOMALY":"296.4613","DECAY_DATE":null,"ARG_OF_PERICENTER":"63.6537","OBJECT_NAME":"STARLINK-1920"},{"COUNTRY_CODE":"US","ELEMENT_SET_NO":"999","MEAN_MOTION_DDOT":"0.0000000000000","RCS_SIZE":"LARGE","NORAD_CAT_ID":"46752","EPHEMERIS_TYPE":"0","MEAN_MOTION":"15.06403164","MEAN_MOTION_DOT":"0.00002996","TIME_SYSTEM":"UTC","MEAN_ANOMALY":"298.8329","ARG_OF_PERICENTER":"61.2807","DECAY_DATE":null,"OBJECT_NAME":"STARLINK-1921","ECCENTRICITY":"0.00014650","EPOCH":"2021-12-29T11:27:58.320576","GP_ID":"192720522","PERIAPSIS":"546.189","FILE":"3255127","TLE_LINE2":"2 46752  53.0539 355.4987 0001465  61.2807 298.8329 15.06403164 65891","OBJECT_TYPE":"PAYLOAD","REF_FRAME":"TEME","RA_OF_ASC_NODE":"355.4987","LAUNCH_DATE":"2020-10-24","SITE":"AFETR","CENTER_NAME":"EARTH","BSTAR":"0.00021995000000","TLE_LINE1":"1 46752U 20074P   21363.47775834  .00002996  00000-0  21995-3 0  9992","OBJECT_ID":"2020-074P","REV_AT_EPOCH":"6589","PERIOD":"95.592","MEAN_ELEMENT_THEORY":"SGP4","APOAPSIS":"548.218","CLASSIFICATION_TYPE":"U","INCLINATION":"53.0539","SEMIMAJOR_AXIS":"6925.339"}];
